OBJECT_NAME,OBJECT_ID,EPOCH,MEAN_MOTION,ECCENTRICITY,INCLINATION,RA_OF_ASC_NODE,ARG_OF_PERICENTER,MEAN_ANOMALY,EPHEMERIS_TYPE,CLASSIFICATION_TYPE,NORAD_CAT_ID,ELEMENT_SET_NO,REV_AT_EPOCH,BSTAR,MEAN_MOTION_DOT,MEAN_MOTION_DDOT
LEMUR-2-TEODOR,2025-276DG,2026-06-04T17:55:53.008320,15.20909334,.00017312,97.4148,229.7069,125.7864,234.3532,0,U,66768,999,2855,.32343827E-3,.7086E-4,0
LEMUR-2-LAILA,2025-276DQ,2026-06-04T17:20:54.841344,15.21128517,.00013863,97.4174,229.7960,147.7957,212.3364,0,U,66776,999,2855,.2883296E-3,.635E-4,0
LEMUR-2-CELIJO-SB-PK,2025-276DW,2026-06-04T16:40:20.504064,14.99818241,.00086734,97.5287,226.8815,163.2293,196.9219,0,U,66781,999,2075,.65365604E-3,.8044E-4,0
LEMUR-2-FINNIAN,2025-276DX,2026-06-04T17:48:00.818496,15.00213969,.00082743,97.5249,227.1325,126.6674,233.5312,0,U,66782,999,1813,.627764E-3,.7802E-4,0
LEMUR-2-STARLIGHT,2025-276DY,2026-06-04T16:29:19.614048,14.98902800,.00151741,97.5270,226.7515,164.4283,195.7411,0,U,66783,999,2832,.6177699E-3,.743E-4,0
LEMUR-2-TARTIFLETTE,2025-276DZ,2026-06-04T16:27:26.806752,14.98917742,.0013793,97.5271,226.7555,170.6341,189.5142,0,U,66784,999,2832,.73990564E-3,.8912E-4,0
LEMUR-2-VUKASIN,2025-276EA,2026-06-04T10:09:40.219488,15.00215096,.00061605,97.5302,226.7687,154.8937,205.2587,0,U,66785,999,2823,.62925031E-3,.7819E-4,0
LEMUR-2-HOTSPUR-TOM,2025-276EB,2026-06-04T17:51:26.564544,14.98795825,.00150268,97.5239,226.7983,166.5040,193.6589,0,U,66786,999,2826,.66612651E-3,.7994E-4,0
LEMUR-2-MYRA,2025-276EC,2026-06-04T17:17:29.927328,15.00071955,.00149747,97.5221,227.0119,183.0269,177.0867,0,U,66787,999,2834,.59736945E-3,.7405E-4,0
LEMUR-2 FIKRETDENGIZ,2026-004A,2026-06-03T13:16:36.378048,14.88221873,.00088388,97.8015,153.3224,173.3369,186.7966,0,U,67363,999,2125,.51674204E-3,.4718E-4,0
TWILIGHT-1 OBJECT B,2026-004B,2026-06-03T23:25:05.549952,14.87654413,.00089831,97.8058,153.7586,163.3184,196.8330,0,U,67364,999,2132,.19779244E-3,.1747E-4,0
LEMUR-2-MARIO-SOUSA,2026-004C,2026-06-04T05:03:30.778560,14.88405946,.00084766,97.7991,153.9664,171.6156,188.5204,0,U,67365,999,2136,.6120998E-3,.5625E-4,0
LEMUR-2-SONNENBLUME,2026-004E,2026-06-04T00:08:29.620896,14.88244849,.00079884,97.7983,153.7541,174.6572,185.4731,0,U,67367,999,2133,.37967621E-3,.3453E-4,0
LEMUR-2-WOBLER,2026-004F,2026-06-04T00:01:31.838880,14.88419567,.00085297,97.8037,153.8581,163.6845,196.4648,0,U,67368,999,2133,.50648378E-3,.4646E-4,0
LEMUR-2-GRAM-E-SUE,2026-004H,2026-06-03T23:47:40.811712,14.88409002,.0007025,97.7971,153.7538,174.8290,185.3001,0,U,67370,999,2133,.30273405E-3,.2753E-4,0
LEMUR-2-KATIE,2026-004AA,2026-06-03T23:49:16.612032,14.89945610,.00044403,97.8032,154.1718,120.4962,239.6694,0,U,67387,999,2134,.47300596E-3,.4501E-4,0
LEMUR-2-HCS-BAZUS,2026-004AB,2026-06-03T23:47:58.175520,14.89938139,.00041084,97.8020,154.1536,115.6889,244.4753,0,U,67388,999,2134,.54476156E-3,.5192E-4,0
